CTC1_L_00070001-01
1 67280U 25383KZ  26070.40832176  .00000000  00000+0  00000-0 0  9999
2 67280  40.0000   0.0000 0000000   0.0000   0.0000 14.89338871    12
CTC1_L_00070001-02
1 67281U 24639DF  26070.40832176  .00000000  00000+0  00000-0 0  9993
2 67281  40.0000   0.0000 0000000   0.0000  90.0000 14.89338871    12
CTC1_L_00070001-03
1 67282U 24284WB  26070.40832176  .00000000  00000+0  00000-0 0  9990
2 67282  40.0000   0.0000 0000000   0.0000 180.0000 14.89338871    13
CTC1_L_00070001-04
1 67283U 25257HF  26070.40832176  .00000000  00000+0  00000-0 0  9992
2 67283  40.0000   0.0000 0000000   0.0000 270.0000 14.89338871    14
CTC1_L_00070002-01
1 67284U 26889TM  26070.40832176  .00000000  00000+0  00000-0 0  9995
2 67284  40.0000  12.0000 0000000   0.0000  12.0000 14.89338871    12
CTC1_L_00070002-02
1 67285U 22290QL  26070.40832176  .00000000  00000+0  00000-0 0  9998
2 67285  40.0000  12.0000 0000000   0.0000 102.0000 14.89338871    13
CTC1_L_00070002-03
1 67286U 22367LN  26070.40832176  .00000000  00000+0  00000-0 0  9994
2 67286  40.0000  12.0000 0000000   0.0000 192.0000 14.89338871    13
CTC1_L_00070002-04
1 67287U 26514EC  26070.40832176  .00000000  00000+0  00000-0 0  9993
2 67287  40.0000  12.0000 0000000   0.0000 282.0000 14.89338871    14
CTC1_L_00070003-01
1 67288U 23640UE  26070.40832176  .00000000  00000+0  00000-0 0  9991
2 67288  40.0000  24.0000 0000000   0.0000  24.0000 14.89338871    12
CTC1_L_00070003-02
1 67289U 26100SR  26070.40832176  .00000000  00000+0  00000-0 0  9996
2 67289  40.0000  24.0000 0000000   0.0000 114.0000 14.89338871    13
CTC1_L_00070003-03
1 67290U 24396LU  26070.40832176  .00000000  00000+0  00000-0 0  9993
2 67290  40.0000  24.0000 0000000   0.0000 204.0000 14.89338871    15
CTC1_L_00070003-04
1 67291U 26073CR  26070.40832176  .00000000  00000+0  00000-0 0  9998
2 67291  40.0000  24.0000 0000000   0.0000 294.0000 14.89338871    15
CTC1_L_00070004-01
1 67292U 24668DQ  26070.40832176  .00000000  00000+0  00000-0 0  9997
2 67292  40.0000  36.0000 0000000   0.0000  36.0000 14.89338871    13
CTC1_L_00070004-02
1 67293U 22231JS  26070.40832176  .00000000  00000+0  00000-0 0  9992
2 67293  40.0000  36.0000 0000000   0.0000 126.0000 14.89338871    14
CTC1_L_00070004-03
1 67294U 26280OO  26070.40832176  .00000000  00000+0  00000-0 0  9991
2 67294  40.0000  36.0000 0000000   0.0000 216.0000 14.89338871    15
CTC1_L_00070004-04
1 67295U 24930ZW  26070.40832176  .00000000  00000+0  00000-0 0  9992
2 67295  40.0000  36.0000 0000000   0.0000 306.0000 14.89338871    16
CTC1_L_00070005-01
1 67296U 24787VJ  26070.40832176  .00000000  00000+0  00000-0 0  9993
2 67296  40.0000  48.0000 0000000   0.0000  48.0000 14.89338871    13
CTC1_L_00070005-02
1 67297U 24257WT  26070.40832176  .00000000  00000+0  00000-0 0  9996
2 67297  40.0000  48.0000 0000000   0.0000 138.0000 14.89338871    14
CTC1_L_00070005-03
1 67298U 22679XV  26070.40832176  .00000000  00000+0  00000-0 0  9993
2 67298  40.0000  48.0000 0000000   0.0000 228.0000 14.89338871    15
CTC1_L_00070005-04
1 67299U 23510CY  26070.40832176  .00000000  00000+0  00000-0 0  9999
2 67299  40.0000  48.0000 0000000   0.0000 318.0000 14.89338871    16
CTC1_L_00070006-01
1 67300U 26150NK  26070.40832176  .00000000  00000+0  00000-0 0  9995
2 67300  40.0000  60.0000 0000000   0.0000  60.0000 14.89338871    17
CTC1_L_00070006-02
1 67301U 25615CQ  26070.40832176  .00000000  00000+0  00000-0 0  9991
2 67301  40.0000  60.0000 0000000   0.0000 150.0000 14.89338871    18
CTC1_L_00070006-03
1 67302U 26501E   26070.40832176  .00000000  00000+0  00000-0 0  9997
2 67302  40.0000  60.0000 0000000   0.0000 240.0000 14.89338871    19
CTC1_L_00070006-04
1 67303U 23203AD  26070.40832176  .00000000  00000+0  00000-0 0  9994
2 67303  40.0000  60.0000 0000000   0.0000 330.0000 14.89338871    10
CTC1_L_00070007-01
1 67304U 24816SH  26070.40832176  .00000000  00000+0  00000-0 0  9996
2 67304  40.0000  72.0000 0000000   0.0000  72.0000 14.89338871    17
CTC1_L_00070007-02
1 67305U 26824UX  26070.40832176  .00000000  00000+0  00000-0 0  9998
2 67305  40.0000  72.0000 0000000   0.0000 162.0000 14.89338871    18
CTC1_L_00070007-03
1 67306U 26012EO  26070.40832176  .00000000  00000+0  00000-0 0  9998
2 67306  40.0000  72.0000 0000000   0.0000 252.0000 14.89338871    19
CTC1_L_00070007-04
1 67307U 25519GN  26070.40832176  .00000000  00000+0  00000-0 0  9990
2 67307  40.0000  72.0000 0000000   0.0000 342.0000 14.89338871    10
CTC1_L_00070008-01
1 67308U 23432AJ  26070.40832176  .00000000  00000+0  00000-0 0  9993
2 67308  40.0000  84.0000 0000000   0.0000  84.0000 14.89338871    17
CTC1_L_00070008-02
1 67309U 25247VS  26070.40832176  .00000000  00000+0  00000-0 0  9990
2 67309  40.0000  84.0000 0000000   0.0000 174.0000 14.89338871    18
CTC1_L_00070008-03
1 67310U 26915HL  26070.40832176  .00000000  00000+0  00000-0 0  9995
2 67310  40.0000  84.0000 0000000   0.0000 264.0000 14.89338871    10
CTC1_L_00070008-04
1 67311U 22519WK  26070.40832176  .00000000  00000+0  00000-0 0  9992
2 67311  40.0000  84.0000 0000000   0.0000 354.0000 14.89338871    11
CTC1_L_00070009-01
1 67312U 26274LD  26070.40832176  .00000000  00000+0  00000-0 0  9995
2 67312  40.0000  96.0000 0000000   0.0000  96.0000 14.89338871    18
CTC1_L_00070009-02
1 67313U 22133XD  26070.40832176  .00000000  00000+0  00000-0 0  9996
2 67313  40.0000  96.0000 0000000   0.0000 186.0000 14.89338871    19
CTC1_L_00070009-03
1 67314U 25532FK  26070.40832176  .00000000  00000+0  00000-0 0  9993
2 67314  40.0000  96.0000 0000000   0.0000 276.0000 14.89338871    10
CTC1_L_00070009-04
1 67315U 26183QM  26070.40832176  .00000000  00000+0  00000-0 0  9997
2 67315  40.0000  96.0000 0000000   0.0000   6.0000 14.89338871    12
CTC1_L_00070010-01
1 67316U 26586JW  26070.40832176  .00000000  00000+0  00000-0 0  9995
2 67316  40.0000 108.0000 0000000   0.0000 108.0000 14.89338871    10
CTC1_L_00070010-02
1 67317U 22435TU  26070.40832176  .00000000  00000+0  00000-0 0  9995
2 67317  40.0000 108.0000 0000000   0.0000 198.0000 14.89338871    10
CTC1_L_00070010-03
1 67318U 23323UH  26070.40832176  .00000000  00000+0  00000-0 0  9993
2 67318  40.0000 108.0000 0000000   0.0000 288.0000 14.89338871    11
CTC1_L_00070010-04
1 67319U 25095GI  26070.40832176  .00000000  00000+0  00000-0 0  9992
2 67319  40.0000 108.0000 0000000   0.0000  18.0000 14.89338871    13
CTC1_L_00070011-01
1 67320U 22394YM  26070.40832176  .00000000  00000+0  00000-0 0  9993
2 67320  40.0000 120.0000 0000000   0.0000 120.0000 14.89338871    13
CTC1_L_00070011-02
1 67321U 22348GE  26070.40832176  .00000000  00000+0  00000-0 0  9993
2 67321  40.0000 120.0000 0000000   0.0000 210.0000 14.89338871    14
CTC1_L_00070011-03
1 67322U 23722XI  26070.40832176  .00000000  00000+0  00000-0 0  9991
2 67322  40.0000 120.0000 0000000   0.0000 300.0000 14.89338871    15
CTC1_L_00070011-04
1 67323U 25020CU  26070.40832176  .00000000  00000+0  00000-0 0  9995
2 67323  40.0000 120.0000 0000000   0.0000  30.0000 14.89338871    16
CTC1_L_00070012-01
1 67324U 24664SA  26070.40832176  .00000000  00000+0  00000-0 0  9999
2 67324  40.0000 132.0000 0000000   0.0000 132.0000 14.89338871    13
CTC1_L_00070012-02
1 67325U 25179KR  26070.40832176  .00000000  00000+0  00000-0 0  9992
2 67325  40.0000 132.0000 0000000   0.0000 222.0000 14.89338871    14
CTC1_L_00070012-03
1 67326U 24685IT  26070.40832176  .00000000  00000+0  00000-0 0  9994
2 67326  40.0000 132.0000 0000000   0.0000 312.0000 14.89338871    15
CTC1_L_00070012-04
1 67327U 26633LT  26070.40832176  .00000000  00000+0  00000-0 0  9990
2 67327  40.0000 132.0000 0000000   0.0000  42.0000 14.89338871    16
CTC1_L_00070013-01
1 67328U 25730WY  26070.40832176  .00000000  00000+0  00000-0 0  9998
2 67328  40.0000 144.0000 0000000   0.0000 144.0000 14.89338871    13
CTC1_L_00070013-02
1 67329U 24558UL  26070.40832176  .00000000  00000+0  00000-0 0  9996
2 67329  40.0000 144.0000 0000000   0.0000 234.0000 14.89338871    14
CTC1_L_00070013-03
1 67330U 22168FD  26070.40832176  .00000000  00000+0  00000-0 0  9993
2 67330  40.0000 144.0000 0000000   0.0000 324.0000 14.89338871    16
CTC1_L_00070013-04
1 67331U 24991ID  26070.40832176  .00000000  00000+0  00000-0 0  9990
2 67331  40.0000 144.0000 0000000   0.0000  54.0000 14.89338871    17
CTC1_L_00070014-01
1 67332U 23637XD  26070.40832176  .00000000  00000+0  00000-0 0  9997
2 67332  40.0000 156.0000 0000000   0.0000 156.0000 14.89338871    14
CTC1_L_00070014-02
1 67333U 23883ON  26070.40832176  .00000000  00000+0  00000-0 0  9991
2 67333  40.0000 156.0000 0000000   0.0000 246.0000 14.89338871    15
CTC1_L_00070014-03
1 67334U 25076DE  26070.40832176  .00000000  00000+0  00000-0 0  9998
2 67334  40.0000 156.0000 0000000   0.0000 336.0000 14.89338871    16
CTC1_L_00070014-04
1 67335U 22095L   26070.40832176  .00000000  00000+0  00000-0 0  9997
2 67335  40.0000 156.0000 0000000   0.0000  66.0000 14.89338871    17
CTC1_L_00070015-01
1 67336U 26241BC  26070.40832176  .00000000  00000+0  00000-0 0  9995
2 67336  40.0000 168.0000 0000000   0.0000 168.0000 14.89338871    14
CTC1_L_00070015-02
1 67337U 25351UP  26070.40832176  .00000000  00000+0  00000-0 0  9997
2 67337  40.0000 168.0000 0000000   0.0000 258.0000 14.89338871    15
CTC1_L_00070015-03
1 67338U 22440G   26070.40832176  .00000000  00000+0  00000-0 0  9994
2 67338  40.0000 168.0000 0000000   0.0000 348.0000 14.89338871    16
CTC1_L_00070015-04
1 67339U 26915JS  26070.40832176  .00000000  00000+0  00000-0 0  9996
2 67339  40.0000 168.0000 0000000   0.0000  78.0000 14.89338871    17
CTC1_L_00070016-01
1 67340U 24600JA  26070.40832176  .00000000  00000+0  00000-0 0  9997
2 67340  40.0000 180.0000 0000000   0.0000 180.0000 14.89338871    17
CTC1_L_00070016-02
1 67341U 24945UP  26070.40832176  .00000000  00000+0  00000-0 0  9990
2 67341  40.0000 180.0000 0000000   0.0000 270.0000 14.89338871    18
